ONEWEB-0094             
1 45450U 20020AC  25290.58686277  .00000061  00000+0  12429-3 0  9996
2 45450  87.9112  54.0746 0001646 100.6637 259.4680 13.17647741274361
ONEWEB-0087             
1 45451U 20020AD  25290.40753361 -.00000340  00000+0 -99574-3 0  9995
2 45451  87.8835  69.3581 0001331 102.6855 257.4422 13.11415305270769
ONEWEB-0082             
1 45452U 20020AE  25290.63317433 -.00000228  00000+0 -67843-3 0  9996
2 45452  87.8837  69.3387 0001387 100.9171 259.2113 13.11415222270887
ONEWEB-0050             
1 45453U 20020AF  25290.67021125 -.00017737  00000+0 -18910-2 0  9994
2 45453  88.7282 266.4339 0006504 102.8219 257.3737 14.89091515304272
ONEWEB-0034             
1 45454U 20020AG  25290.65436323 -.00000422  00000+0 -12263-2 0  9991
2 45454  87.8829  69.3531 0001608  97.0530 263.0780 13.11418111270807
ONEWEB-0060             
1 45455U 20020AH  25290.47295315  .00000128  00000+0  32446-3 0  9993
2 45455  87.8818  69.4132 0000986 145.4381 214.6812 13.11415441270737
ONEWEB-0086             
1 45456U 20020AJ  25290.68065903  .00000579  00000+0  15974-2 0  9991
2 45456  87.8828  69.3448 0001682 123.3940 236.7349 13.11418137270823
ONEWEB-0088             
1 45457U 20020AK  25290.42972855 -.00000270  00000+0 -79760-3 0  9991
2 45457  87.8837  69.3443 0001487  92.9537 267.1761 13.11416900270726
